OBJECT C                
1 57582U 23117C   25228.37588725  .00006285  00000+0  24057-3 0  9996
2 57582  97.4407 303.0739 0007492 237.1451 122.9067 15.26893640111857
